#aV2021 11 30  0  0  0.00000000     288 DD+AD WGS84 FIT  NGA
## 2186 172800.00000000   300.00000000 59548 0.0000000000000
+   32     1  2  3  4  5  6  7  8  9 10 11 12 13 14 15 16 17
+         18 19 20 21 22 23 24 25 26 27 28 29 30 31 32  0  0
+          0  0  0  0  0  0  0  0  0  0  0  0  0  0  0  0  0
+          0  0  0  0  0  0  0  0  0  0  0  0  0  0  0  0  0
+          0  0  0  0  0  0  0  0  0  0  0  0  0  0  0  0  0
++         2  2  2  2  2  2  2  2  2  2  2  2  2  2  2  2  2
++         2  2  2  2  2  2  2  2  2  2  2  2  2  2  2  0  0
++         0  0  0  0  0  0  0  0  0  0  0  0  0  0  0  0  0
++         0  0  0  0  0  0  0  0  0  0  0  0  0  0  0  0  0
++         0  0  0  0  0  0  0  0  0  0  0  0  0  0  0  0  0
%c cc cc ccc ccc cccc cccc cccc cccc ccccc ccccc ccccc ccccc
%c cc cc ccc ccc cccc cccc cccc cccc ccccc ccccc ccccc ccccc
%f  0.0000000  0.000000000  0.00000000000  0.000000000000000
%f  0.0000000  0.000000000  0.00000000000  0.000000000000000
%i    0    0    0    0      0      0      0      0         0
%i    0    0    0    0      0      0      0      0         0
/*      NGA, ST. LOUIS,MO.                                  
/*   EPHEMERIS COMPUTED FROM 2 DAYS OF DATA                 
/*   EPOCHA v7 SMOOTHER                                     
/*   G2139 IERS2010 SATIGS SATAPC                           
*  2021 11 30  7 15  0.00000000
P  1  22310.272758  13987.123961   4393.506827    496.927990                    
V  1   3524.573684   4984.832701 -31452.645217     -0.103324                    
P  2  -9964.664450 -19519.106234  15601.382659   -643.986428                    
V  2  16559.641724   8788.012387  22631.975196     -0.014249                    
P  3  13113.120358   9606.379018  20921.064558    -27.169716                    
V  3  -4288.390954  26413.717676  -9295.082613     -0.109003                    
P  4  21862.277996   2977.424118  14840.255350   -200.524783                    
V  4 -16942.927118   8429.317842  23195.199947      0.010963                    
P  5  -6622.103246 -22515.413242 -12452.222602    -62.788429                    
V  5   3916.439161 -15310.532005  26091.734951     -0.012846                    
P  6   5344.165237 -14193.682019  21864.039837    130.460379                    
V  6  21938.226045  16647.301425   5519.238868      0.096066                    
P  7  20611.281453   1119.944532 -16609.071866    284.871566                    
V  7  15913.982324  14769.065197  19807.428564      0.049370                    
P  8  12960.516640  10169.738897 -20913.772733    -46.196853                    
V  8 -24021.658334  11062.651510  -9190.821188     -0.015212                    
P  9  25138.972792  -7026.900182   4920.241993   -361.195276                    
V  9  -4652.319185   5231.104667  30743.790656      0.005033                    
P 10 -11589.983807  19800.132877 -12996.354835   -257.640897                    
V 10     -2.599643 -16951.829795 -25860.513211     -0.087247                    
P 11  -6993.549350 -20414.804272  15490.505254     16.517707                    
V 11  16125.438603  11436.053772  22326.918868     -0.025123                    
P 12 -11552.720126 -12354.540114  20258.074808   -133.772098                    
V 12   6251.112455 -25489.163075 -11700.339342     -0.055749                    
P 13  -4515.411402 -14454.436351 -21976.391368    222.237609                    
V 13  26620.408205  -6940.167851   -760.268453      0.057248                    
P 14  12773.211042 -19291.167876 -12993.315974    -47.210148                    
V 14   -487.662125  16705.392976 -25340.056768     -0.065280                    
P 15 -14758.934631  -9292.548620 -20509.604181   -102.710253                    
V 15  21520.360226 -13141.275865  -9393.194439      0.028178                    
P 16   1808.923555  24197.606060 -10481.348333   -432.660283                    
V 16  -5326.346402  12200.903938  28369.093684     -0.062461                    
P 17  21229.217291 -13532.655624   8945.051508    540.864928                    
V 17  10752.203442  -1645.169149 -29437.018809      0.052518                    
P 18 -19640.460438    -77.563651 -17931.394973    287.518810                    
V 18 -16780.486077 -15347.332421  18352.565348     -0.062284                    
P 19  15076.776142 -15144.534501  15398.580921     85.933323                    
V 19  19762.639253  -3873.540233 -22937.613809      0.050015                    
P 20  -1567.723876 -26615.654858  -1533.970240    517.867880                    
V 20   3180.650087  -1972.598125  31056.580176     -0.001893                    
P 21  20697.164159  16602.349421  -3559.811464    152.458126                    
V 21  -5754.189931   -879.588175 -30921.951456      0.010456                    
P 22  11606.972336  17552.897334  16498.402297   -452.722528                    
V 22  -2701.779480  20549.751169 -19961.829804      0.090319                    
P 23 -14905.977486   8959.701449 -20068.716944     27.169037                    
V 23   1658.039320 -25417.223519 -12675.624857     -0.042750                    
P 24 -22127.585279 -15095.815303   -533.985350    271.589148                    
V 24   2092.043713  -2546.209729 -30891.810433      0.029387                    
P 25 -15233.367037    301.416088  21470.533276    248.464603                    
V 25   3244.577323 -27744.082002   2929.938267      0.058400                    
P 26  -4952.236592  25643.054174   3777.260580    160.360730                    
V 26  -3261.880917  -5229.541478  30982.235047      0.037176                    
P 27   1747.535662  15285.728182 -21791.410138   -225.340040                    
V 27 -25409.690160   9838.491577   5275.532008     -0.045480                    
P 28   9504.720454 -24173.022835  -5529.968433    452.740682                    
V 28    540.502941   7993.839460 -30796.669418     -0.076129                    
P 29 -25016.187123   1987.918282   8753.013579   -447.563279                    
V 29   9990.771000  -5266.579850  29549.236216     -0.051648                    
P 30  13631.960680  -8826.381574 -20979.305161   -495.543788                    
V 30  20525.974689  17326.279119   5791.615209     -0.030535                    
P 31  -3852.315440  15806.721930  20790.670479   -152.691074                    
V 31 -21427.653416 -16097.061964   8687.559493     -0.018871                    
P 32 -17707.174252  16114.754676  11415.759383    -28.586663                    
V 32 -14282.080504   3149.484209 -27052.483918     -0.050938                    
EOF
